start=new Date('2022-10-07T00:00:00.000Z').valueOf();
sats=[{"SITE":"AFETR","COUNTRY_CODE":"US","EPOCH":"2022-10-07T00:00:00.999648","GP_ID":"214332012","EPHEMERIS_TYPE":"0","FILE":"3594419","CLASSIFICATION_TYPE":"U","PERIOD":"91.534","PERIAPSIS":"349.114","MEAN_ANOMALY":"9.8788","ECCENTRICITY":"0.00010510","OBJECT_NAME":"STARLINK-4714","BSTAR":"0.00086361000000","OBJECT_TYPE":"PAYLOAD","SEMIMAJOR_AXIS":"6727.956","TLE_LINE1":"1 53704U 22107E   22280.00001157  .00122247  00000-0  86361-3 0  9994","APOAPSIS":"350.528","CENTER_NAME":"EARTH","ELEMENT_SET_NO":"999","LAUNCH_DATE":"2022-09-05","DECAY_DATE":null,"ARG_OF_PERICENTER":"126.4352","RA_OF_ASC_NODE":"115.2207","INCLINATION":"53.2139","MEAN_ELEMENT_THEORY":"SGP4","MEAN_MOTION_DDOT":"0.0000000000000","NORAD_CAT_ID":"53704","TLE_LINE2":"2 53704  53.2139 115.2207 0001051 126.4352   9.8788 15.73178616  5147","OBJECT_ID":"2022-107E","REV_AT_EPOCH":"514","REF_FRAME":"TEME","MEAN_MOTION_DOT":"0.00122247","TIME_SYSTEM":"UTC","RCS_SIZE":"LARGE","MEAN_MOTION":"15.73178616"},{"COUNTRY_CODE":"US","SITE":"AFETR","EPOCH":"2022-10-07T00:00:00.999648","GP_ID":"214331665","EPHEMERIS_TYPE":"0","FILE":"3594416","CLASSIFICATION_TYPE":"U","PERIOD":"91.534","OBJECT_NAME":"STARLINK-4717","MEAN_ANOMALY":"0.4004","PERIAPSIS":"349.067","ECCENTRICITY":"0.00011040","SEMIMAJOR_AXIS":"6727.944","BSTAR":"0.00081304000000","OBJECT_TYPE":"PAYLOAD","TLE_LINE1":"1 53705U 22107F   22280.00001157  .00114973  00000-0  81304-3 0  9994","APOAPSIS":"350.552","ELEMENT_SET_NO":"999","CENTER_NAME":"EARTH","LAUNCH_DATE":"2022-09-05","ARG_OF_PERICENTER":"136.5065","DECAY_DATE":null,"MEAN_MOTION_DDOT":"0.0000000000000","MEAN_ELEMENT_THEORY":"SGP4","INCLINATION":"53.2136","RA_OF_ASC_NODE":"115.2190","TLE_LINE2":"2 53705  53.2136 115.2190 0001104 136.5065   0.4004 15.73182747  5146","NORAD_CAT_ID":"53705","OBJECT_ID":"2022-107F","REV_AT_EPOCH":"514","MEAN_MOTION_DOT":"0.00114973","REF_FRAME":"TEME","MEAN_MOTION":"15.73182747","TIME_SYSTEM":"UTC","RCS_SIZE":"LARGE"},{"PERIOD":"91.535","BSTAR":"0.00085325000000","OBJECT_TYPE":"PAYLOAD","SEMIMAJOR_AXIS":"6727.970","TLE_LINE1":"1 53706U 22107G   22280.00001157  .00120727  00000-0  85325-3 0  9996","PERIAPSIS":"349.042","MEAN_ANOMALY":"10.4348","ECCENTRICITY":"0.00011790","OBJECT_NAME":"STARLINK-4716","GP_ID":"214331662","EPHEMERIS_TYPE":"0","SITE":"AFETR","COUNTRY_CODE":"US","EPOCH":"2022-10-07T00:00:00.999648","CLASSIFICATION_TYPE":"U","FILE":"3594416","OBJECT_ID":"2022-107G","RA_OF_ASC_NODE":"115.2177","INCLINATION":"53.2137","MEAN_ELEMENT_THEORY":"SGP4","MEAN_MOTION_DDOT":"0.0000000000000","TLE_LINE2":"2 53706  53.2137 115.2177 0001179 127.0884  10.4348 15.73173773  5140","NORAD_CAT_ID":"53706","RCS_SIZE":"LARGE","TIME_SYSTEM":"UTC","MEAN_MOTION":"15.73173773","REV_AT_EPOCH":"514","REF_FRAME":"TEME","MEAN_MOTION_DOT":"0.00120727","APOAPSIS":"350.628","CENTER_NAME":"EARTH","ELEMENT_SET_NO":"999","DECAY_DATE":null,"ARG_OF_PERICENTER":"127.0884","LAUNCH_DATE":"2022-09-05"},{"LAUNCH_DATE":"2022-09-05","DECAY_DATE":null,"ARG_OF_PERICENTER":"133.2712","APOAPSIS":"350.468","CENTER_NAME":"EARTH","ELEMENT_SET_NO":"999","REV_AT_EPOCH":"514","REF_FRAME":"TEME","MEAN_MOTION_DOT":"0.00073776","RCS_SIZE":"LARGE","TIME_SYSTEM":"UTC","MEAN_MOTION":"15.73200564","INCLINATION":"53.2136","RA_OF_ASC_NODE":"115.2091","MEAN_MOTION_DDOT":"0.0000000000000","MEAN_ELEMENT_THEORY":"SGP4","TLE_LINE2":"2 53707  53.2136 115.2091 0001054 133.2712   8.4170 15.73200564  5145","NORAD_CAT_ID":"53707","OBJECT_ID":"2022-107H","FILE":"3594416","CLASSIFICATION_TYPE":"U","SITE":"AFETR","COUNTRY_CODE":"US","EPOCH":"2022-10-07T00:00:00.999648","GP_ID":"214332015","EPHEMERIS_TYPE":"0","MEAN_ANOMALY":"8.4170","PERIAPSIS":"349.049","ECCENTRICITY":"0.00010540","OBJECT_NAME":"STARLINK-4667","BSTAR":"0.00052546000000","OBJECT_TYPE":"PAYLOAD","SEMIMAJOR_AXIS":"6727.894","TLE_LINE1":"1 53707U 22107H   22280.00001157  .00073776  00000-0  52546-3 0  9997","PERIOD":"91.533"},{"PERIOD":"91.535","OBJECT_NAME":"STARLINK-4694","ECCENTRICITY":"0.00009820","PERIAPSIS":"349.173","MEAN_ANOMALY":"19.4413","SEMIMAJOR_AXIS":"6727.969","OBJECT_TYPE":"PAYLOAD","BSTAR":"0.00080701000000","TLE_LINE1":"1 53708U 22107J   22280.00001157  .00114061  00000-0  80701-3 0  9995","COUNTRY_CODE":"US","SITE":"AFETR","EPOCH":"2022-10-07T00:00:00.999648","GP_ID":"214331678","EPHEMERIS_TYPE":"0","FILE":"3594417","CLASSIFICATION_TYPE":"U","MEAN_MOTION_DDOT":"0.0000000000000","MEAN_ELEMENT_THEORY":"SGP4","INCLINATION":"53.2135","RA_OF_ASC_NODE":"115.2125","NORAD_CAT_ID":"53708","TLE_LINE2":"2 53708  53.2135 115.2125 0000982 120.4846  19.4413 15.73174216  5144","OBJECT_ID":"2022-107J","REV_AT_EPOCH":"514","MEAN_MOTION_DOT":"0.00114061","REF_FRAME":"TEME","MEAN_MOTION":"15.73174216","TIME_SYSTEM":"UTC","RCS_SIZE":"LARGE","APOAPSIS":"350.494","ELEMENT_SET_NO":"999","CENTER_NAME":"EARTH","LAUNCH_DATE":"2022-09-05","ARG_OF_PERICENTER":"120.4846","DECAY_DATE":null},{"PERIOD":"91.534","PERIAPSIS":"349.028","MEAN_ANOMALY":"0.3727","ECCENTRICITY":"0.00011290","OBJECT_NAME":"STARLINK-4685","TLE_LINE1":"1 53709U 22107K   22280.00001157  .00080310  00000-0  57141-3 0  9997","OBJECT_TYPE":"PAYLOAD","BSTAR":"0.00057141000000","SEMIMAJOR_AXIS":"6727.923","EPOCH":"2022-10-07T00:00:00.999648","SITE":"AFETR","COUNTRY_CODE":"US","EPHEMERIS_TYPE":"0","GP_ID":"214332035","FILE":"3594417","CLASSIFICATION_TYPE":"U","TLE_LINE2":"2 53709  53.2137 115.2240 0001129 134.1995   0.3727 15.73190414  5141","NORAD_CAT_ID":"53709","RA_OF_ASC_NODE":"115.2240","INCLINATION":"53.2137","MEAN_MOTION_DDOT":"0.0000000000000","MEAN_ELEMENT_THEORY":"SGP4","OBJECT_ID":"2022-107K","REF_FRAME":"TEME","MEAN_MOTION_DOT":"0.00080310","REV_AT_EPOCH":"514","RCS_SIZE":"LARGE","TIME_SYSTEM":"UTC","MEAN_MOTION":"15.73190414","ELEMENT_SET_NO":"999","CENTER_NAME":"EARTH","APOAPSIS":"350.547","LAUNCH_DATE":"2022-09-05","DECAY_DATE":null,"ARG_OF_PERICENTER":"134.1995"},{"MEAN_MOTION":"15.98426745","TIME_SYSTEM":"UTC","RCS_SIZE":"LARGE","MEAN_MOTION_DOT":"0.00444183","REF_FRAME":"TEME","REV_AT_EPOCH":"519","OBJECT_ID":"2022-107L","TLE_LINE2":"2 53710  53.2088 111.5166 0007592 353.6038 143.4950 15.98426745  5198","NORAD_CAT_ID":"53710","MEAN_ELEMENT_THEORY":"SGP4","MEAN_MOTION_DDOT":"0.0000940110000","INCLINATION":"53.2088","RA_OF_ASC_NODE":"111.5166","ARG_OF_PERICENTER":"353.6038","DECAY_DATE":null,"LAUNCH_DATE":"2022-09-05","ELEMENT_SET_NO":"999","CENTER_NAME":"EARTH","APOAPSIS":"283.839","TLE_LINE1":"1 53710U 22107L   22280.00001157  .00444183  94011-4  92840-3 0  9995","SEMIMAJOR_AXIS":"6656.920","BSTAR":"0.00092840000000","OBJECT_TYPE":"PAYLOAD","OBJECT_NAME":"STARLINK-4696","PERIAPSIS":"273.731","ECCENTRICITY":"0.00075920","MEAN_ANOMALY":"143.4950","PERIOD":"90.089","CLASSIFICATION_TYPE":"U","FILE":"3594417","EPHEMERIS_TYPE":"0","GP_ID":"214332030","EPOCH":"2022-10-07T00:00:00.999648","COUNTRY_CODE":"US","SITE":"AFETR"},{"EPOCH":"2022-10-07T00:00:00.999648","SITE":"AFETR","COUNTRY_CODE":"US","EPHEMERIS_TYPE":"0","GP_ID":"214331676","FILE":"3594417","CLASSIFICATION_TYPE":"U","PERIOD":"91.534","PERIAPSIS":"349.093","ECCENTRICITY":"0.00010210","MEAN_ANOMALY":"4.8454","OBJECT_NAME":"STARLINK-4627","TLE_LINE1":"1 53711U 22107M   22280.00001157  .00083804  00000-0  59577-3 0  9996","BSTAR":"0.00059577000000","OBJECT_TYPE":"PAYLOAD","SEMIMAJOR_AXIS":"6727.915","ELEMENT_SET_NO":"999","CENTER_NAME":"EARTH","APOAPSIS":"350.467","LAUNCH_DATE":"2022-09-05","DECAY_DATE":null,"ARG_OF_PERICENTER":"129.0745","TLE_LINE2":"2 53711  53.2138 115.2253 0001021 129.0745   4.8454 15.73192906  5140","NORAD_CAT_ID":"53711","INCLINATION":"53.2138","RA_OF_ASC_NODE":"115.2253","MEAN_MOTION_DDOT":"0.0000000000000","MEAN_ELEMENT_THEORY":"SGP4","OBJECT_ID":"2022-107M","REF_FRAME":"TEME","MEAN_MOTION_DOT":"0.00083804","REV_AT_EPOCH":"514","TIME_SYSTEM":"UTC","RCS_SIZE":"LARGE","MEAN_MOTION":"15.73192906"},{"EPOCH":"2022-10-06T22:42:55.000224","SITE":"AFETR","COUNTRY_CODE":"US","EPHEMERIS_TYPE":"0","GP_ID":"214362018","FILE":"3594620","CLASSIFICATION_TYPE":"U","PERIOD":"91.534","MEAN_ANOMALY":"55.4630","PERIAPSIS":"349.034","ECCENTRICITY":"0.00011350","OBJECT_NAME":"STARLINK-4683","TLE_LINE1":"1 53712U 22107N   22279.94646991  .00097730  00000-0  69306-3 0  9993","OBJECT_TYPE":"PAYLOAD","BSTAR":"0.00069306000000","SEMIMAJOR_AXIS":"6727.932","CENTER_NAME":"EARTH","ELEMENT_SET_NO":"999","APOAPSIS":"350.561","LAUNCH_DATE":"2022-09-05","DECAY_DATE":null,"ARG_OF_PERICENTER":"136.2488","NORAD_CAT_ID":"53712","TLE_LINE2":"2 53712  53.2140 115.4879 0001135 136.2488  55.4630 15.73187020  1303","INCLINATION":"53.2140","RA_OF_ASC_NODE":"115.4879","MEAN_ELEMENT_THEORY":"SGP4","MEAN_MOTION_DDOT":"0.0000000000000","OBJECT_ID":"2022-107N","REF_FRAME":"TEME","MEAN_MOTION_DOT":"0.00097730","REV_AT_EPOCH":"130","RCS_SIZE":"LARGE","TIME_SYSTEM":"UTC","MEAN_MOTION":"15.73187020"},{"ELEMENT_SET_NO":"999","CENTER_NAME":"EARTH","APOAPSIS":"350.579","ARG_OF_PERICENTER":"132.0543","DECAY_DATE":null,"LAUNCH_DATE":"2022-09-05","OBJECT_ID":"2022-107P","NORAD_CAT_ID":"53713","TLE_LINE2":"2 53713  53.2136 115.2276 0001079 132.0543   0.7069 15.73167337  5145","MEAN_ELEMENT_THEORY":"SGP4","MEAN_MOTION_DDOT":"0.0000000000000","RA_OF_ASC_NODE":"115.2276","INCLINATION":"53.2136","MEAN_MOTION":"15.73167337","TIME_SYSTEM":"UTC","RCS_SIZE":"LARGE","MEAN_MOTION_DOT":"0.00121971","REF_FRAME":"TEME","REV_AT_EPOCH":"514","EPHEMERIS_TYPE":"0","GP_ID":"214332682","EPOCH":"2022-10-07T00:00:00.999648","COUNTRY_CODE":"US","SITE":"AFETR","CLASSIFICATION_TYPE":"U","FILE":"3594429","PERIOD":"91.535","TLE_LINE1":"1 53713U 22107P   22280.00001157  .00121971  00000-0  86211-3 0  9991","SEMIMAJOR_AXIS":"6727.988","OBJECT_TYPE":"PAYLOAD","BSTAR":"0.00086211000000","OBJECT_NAME":"STARLINK-4698","PERIAPSIS":"349.127","MEAN_ANOMALY":"0.7069","ECCENTRICITY":"0.00010790"}];
